<ndm xsi:noNamespaceSchemaLocation="https://sanaregistry.org/r/ndmxml/ndmxml-1.0-master.xsd">
    <omm id="CCSDS_OMM_VERS" version="2.0">
        <header>
            <CREATION_DATE/>
            <ORIGINATOR/>
        </header>
        <body>
            <segment>
                <metadata>
                    <OBJECT_NAME>SNUSAT-2</OBJECT_NAME>
                    <OBJECT_ID>2018-099AA</OBJECT_ID>
                    <CENTER_NAME>EARTH</CENTER_NAME>
                    <REF_FRAME>TEME</REF_FRAME>
                    <TIME_SYSTEM>UTC</TIME_SYSTEM>
                    <MEAN_ELEMENT_THEORY>SGP4</MEAN_ELEMENT_THEORY>
                </metadata>
                <data>
                    <meanElements>
                        <EPOCH>2020-12-04T12:10:12.384192</EPOCH>
                        <MEAN_MOTION>14.95380735</MEAN_MOTION>
                        <ECCENTRICITY>.0012215</ECCENTRICITY>
                        <INCLINATION>97.6894</INCLINATION>
                        <RA_OF_ASC_NODE>48.0468</RA_OF_ASC_NODE>
                        <ARG_OF_PERICENTER>342.0872</ARG_OF_PERICENTER>
                        <MEAN_ANOMALY>17.9917</MEAN_ANOMALY>
                    </meanElements>
                    <tleParameters>
                        <EPHEMERIS_TYPE>0</EPHEMERIS_TYPE>
                        <CLASSIFICATION_TYPE>U</CLASSIFICATION_TYPE>
                        <NORAD_CAT_ID>43782</NORAD_CAT_ID>
                        <ELEMENT_SET_NO>999</ELEMENT_SET_NO>
                        <REV_AT_EPOCH>10933</REV_AT_EPOCH>
                        <BSTAR>.30469E-4</BSTAR>
                        <MEAN_MOTION_DOT>2.79E-6</MEAN_MOTION_DOT>
                        <MEAN_MOTION_DDOT>0</MEAN_MOTION_DDOT>
                    </tleParameters>
                </data>
            </segment>
        </body>
    </omm>
    <omm id="CCSDS_OMM_VERS" version="2.0">
        <header>
            <CREATION_DATE/>
            <ORIGINATOR/>
        </header>
        <body>
            <segment>
                <metadata>
                    <OBJECT_NAME>NUSAT-7 (SOPHIE)</OBJECT_NAME>
                    <OBJECT_ID>2020-003B</OBJECT_ID>
                    <CENTER_NAME>EARTH</CENTER_NAME>
                    <REF_FRAME>TEME</REF_FRAME>
                    <TIME_SYSTEM>UTC</TIME_SYSTEM>
                    <MEAN_ELEMENT_THEORY>SGP4</MEAN_ELEMENT_THEORY>
                </metadata>
                <data>
                    <meanElements>
                        <EPOCH>2020-12-04T12:43:47.066304</EPOCH>
                        <MEAN_MOTION>15.29539006</MEAN_MOTION>
                        <ECCENTRICITY>.0013438</ECCENTRICITY>
                        <INCLINATION>97.2922</INCLINATION>
                        <RA_OF_ASC_NODE>42.5505</RA_OF_ASC_NODE>
                        <ARG_OF_PERICENTER>191.6708</ARG_OF_PERICENTER>
                        <MEAN_ANOMALY>283.1422</MEAN_ANOMALY>
                    </meanElements>
                    <tleParameters>
                        <EPHEMERIS_TYPE>0</EPHEMERIS_TYPE>
                        <CLASSIFICATION_TYPE>U</CLASSIFICATION_TYPE>
                        <NORAD_CAT_ID>45017</NORAD_CAT_ID>
                        <ELEMENT_SET_NO>999</ELEMENT_SET_NO>
                        <REV_AT_EPOCH>4954</REV_AT_EPOCH>
                        <BSTAR>.13354E-3</BSTAR>
                        <MEAN_MOTION_DOT>3.757E-5</MEAN_MOTION_DOT>
                        <MEAN_MOTION_DDOT>0</MEAN_MOTION_DDOT>
                    </tleParameters>
                </data>
            </segment>
        </body>
    </omm>
    <omm id="CCSDS_OMM_VERS" version="2.0">
        <header>
            <CREATION_DATE/>
            <ORIGINATOR/>
        </header>
        <body>
            <segment>
                <metadata>
                    <OBJECT_NAME>NUSAT-8 (MARIE)</OBJECT_NAME>
                    <OBJECT_ID>2020-003C</OBJECT_ID>
                    <CENTER_NAME>EARTH</CENTER_NAME>
                    <REF_FRAME>TEME</REF_FRAME>
                    <TIME_SYSTEM>UTC</TIME_SYSTEM>
                    <MEAN_ELEMENT_THEORY>SGP4</MEAN_ELEMENT_THEORY>
                </metadata>
                <data>
                    <meanElements>
                        <EPOCH>2020-12-04T13:04:50.875392</EPOCH>
                        <MEAN_MOTION>15.27878387</MEAN_MOTION>
                        <ECCENTRICITY>.0011266</ECCENTRICITY>
                        <INCLINATION>97.2999</INCLINATION>
                        <RA_OF_ASC_NODE>42.3101</RA_OF_ASC_NODE>
                        <ARG_OF_PERICENTER>192.9538</ARG_OF_PERICENTER>
                        <MEAN_ANOMALY>274.5116</MEAN_ANOMALY>
                    </meanElements>
                    <tleParameters>
                        <EPHEMERIS_TYPE>0</EPHEMERIS_TYPE>
                        <CLASSIFICATION_TYPE>U</CLASSIFICATION_TYPE>
                        <NORAD_CAT_ID>45018</NORAD_CAT_ID>
                        <ELEMENT_SET_NO>999</ELEMENT_SET_NO>
                        <REV_AT_EPOCH>4951</REV_AT_EPOCH>
                        <BSTAR>.13284E-3</BSTAR>
                        <MEAN_MOTION_DOT>3.547E-5</MEAN_MOTION_DOT>
                        <MEAN_MOTION_DDOT>0</MEAN_MOTION_DDOT>
                    </tleParameters>
                </data>
            </segment>
        </body>
    </omm>
    <omm id="CCSDS_OMM_VERS" version="2.0">
        <header>
            <CREATION_DATE/>
            <ORIGINATOR/>
        </header>
        <body>
            <segment>
                <metadata>
                    <OBJECT_NAME>NUSAT-6 (HYPATIA)</OBJECT_NAME>
                    <OBJECT_ID>2020-061A</OBJECT_ID>
                    <CENTER_NAME>EARTH</CENTER_NAME>
                    <REF_FRAME>TEME</REF_FRAME>
                    <TIME_SYSTEM>UTC</TIME_SYSTEM>
                    <MEAN_ELEMENT_THEORY>SGP4</MEAN_ELEMENT_THEORY>
                </metadata>
                <data>
                    <meanElements>
                        <EPOCH>2020-12-04T18:51:52.491744</EPOCH>
                        <MEAN_MOTION>15.20841960</MEAN_MOTION>
                        <ECCENTRICITY>.0005851</ECCENTRICITY>
                        <INCLINATION>97.3979</INCLINATION>
                        <RA_OF_ASC_NODE>51.2143</RA_OF_ASC_NODE>
                        <ARG_OF_PERICENTER>233.7543</ARG_OF_PERICENTER>
                        <MEAN_ANOMALY>126.3129</MEAN_ANOMALY>
                    </meanElements>
                    <tleParameters>
                        <EPHEMERIS_TYPE>0</EPHEMERIS_TYPE>
                        <CLASSIFICATION_TYPE>U</CLASSIFICATION_TYPE>
                        <NORAD_CAT_ID>46272</NORAD_CAT_ID>
                        <ELEMENT_SET_NO>999</ELEMENT_SET_NO>
                        <REV_AT_EPOCH>1406</REV_AT_EPOCH>
                        <BSTAR>.11014E-3</BSTAR>
                        <MEAN_MOTION_DOT>2.363E-5</MEAN_MOTION_DOT>
                        <MEAN_MOTION_DDOT>0</MEAN_MOTION_DDOT>
                    </tleParameters>
                </data>
            </segment>
        </body>
    </omm>
    <omm id="CCSDS_OMM_VERS" version="2.0">
        <header>
            <CREATION_DATE/>
            <ORIGINATOR/>
        </header>
        <body>
            <segment>
                <metadata>
                    <OBJECT_NAME>NUSAT-12 (DOROTHY)</OBJECT_NAME>
                    <OBJECT_ID>2020-079A</OBJECT_ID>
                    <CENTER_NAME>EARTH</CENTER_NAME>
                    <REF_FRAME>TEME</REF_FRAME>
                    <TIME_SYSTEM>UTC</TIME_SYSTEM>
                    <MEAN_ELEMENT_THEORY>SGP4</MEAN_ELEMENT_THEORY>
                </metadata>
                <data>
                    <meanElements>
                        <EPOCH>2020-12-04T13:42:15.573312</EPOCH>
                        <MEAN_MOTION>15.30925358</MEAN_MOTION>
                        <ECCENTRICITY>.0011032</ECCENTRICITY>
                        <INCLINATION>97.2644</INCLINATION>
                        <RA_OF_ASC_NODE>51.1943</RA_OF_ASC_NODE>
                        <ARG_OF_PERICENTER>138.5426</ARG_OF_PERICENTER>
                        <MEAN_ANOMALY>328.8756</MEAN_ANOMALY>
                    </meanElements>
                    <tleParameters>
                        <EPHEMERIS_TYPE>0</EPHEMERIS_TYPE>
                        <CLASSIFICATION_TYPE>U</CLASSIFICATION_TYPE>
                        <NORAD_CAT_ID>46827</NORAD_CAT_ID>
                        <ELEMENT_SET_NO>999</ELEMENT_SET_NO>
                        <REV_AT_EPOCH>434</REV_AT_EPOCH>
                        <BSTAR>.13319E-3</BSTAR>
                        <MEAN_MOTION_DOT>3.911E-5</MEAN_MOTION_DOT>
                        <MEAN_MOTION_DDOT>0</MEAN_MOTION_DDOT>
                    </tleParameters>
                </data>
            </segment>
        </body>
    </omm>
    
</ndm>